*******************************************************************************
Ephemeris / WWW_USER Tue Mar 11 05:48:55 2025 Pasadena, USA      / Horizons    
*******************************************************************************
Target body name: 768325 (2015 BP519)             {source: JPL#13}
Center body name: Earth (399)                     {source: DE441}
Center-site name: Gemini South Obs., Cerro Pachon
*******************************************************************************
Start time      : A.D. 2018-Sep-05 22:38:00.0000 UT      
Stop  time      : A.D. 2018-Sep-06 10:44:00.0000 UT      
Step-size       : 1 minutes
*******************************************************************************
Target pole/equ : undefined
Target radii    : undefined                                                    
Center geodetic : 289.2634, -30.2406227, 2.71233  {E-lon(deg),Lat(deg),Alt(km)}
Center cylindric: 289.2634,5517.21435,-3194.81213 {E-lon(deg),Dxy(km),Dz(km)}
Center pole/equ : ITRF93                          {East-longitude positive}
Center radii    : 6378.137, 6378.137, 6356.752 km {Equator_a, b, pole_c}       
Target primary  : Sun
Vis. interferer : MOON (R_eq= 1737.400) km        {source: DE441}
Rel. light bend : Sun                             {source: DE441}
Rel. lght bnd GM: 1.3271E+11 km^3/s^2                                          
Small-body perts: Yes                             {source: SB441-N16}
Atmos refraction: NO (AIRLESS)
RA format       : HMS
Time format     : CAL 
Calendar mode   : Mixed Julian/Gregorian
RTS-only print  : NO       
EOP file        : eop.250310.p250606                                           
EOP coverage    : DATA-BASED 1962-JAN-20 TO 2025-MAR-10. PREDICTS-> 2025-JUN-05
Units conversion: 1 au= 149597870.700 km, c= 299792.458 km/s, 1 day= 86400.0 s 
Table cut-offs 1: Elevation (-90.0deg=NO ),Airmass (>38.000=NO), Daylight (YES)
Table cut-offs 2: Solar elongation (  0.0,180.0=NO ),Local Hour Angle( 0.0=NO )
Table cut-offs 3: RA/DEC angular rate (     0.0=NO )                           
*******************************************************************************
Initial IAU76/J2000 heliocentric ecliptic osculating elements (au, days, deg.):
  EPOCH=  2459486.5 ! 2021-Sep-29.00 (TDB)         Residual RMS= .071772       
   EC= .9216453194433936   QR= 35.32438628437644   TP= 2473006.6899544764      
   OM= 135.0347983875217   W=  347.957608556413    IN= 54.13315864151695       
  Equivalent ICRF heliocentric cartesian coordinates (au, au/d):
   X= 1.447262462803667E+01  Y= 4.058013389773870E+01  Z=-2.635496110070412E+01
  VX=-2.666905795807619E-03 VY= 1.989051018714909E-05 VZ= 1.987184001515517E-03
Asteroid physical parameters (km, seconds, rotational period in hours):        
   GM= n.a.                RAD= n.a.               ROTPER= n.a.                
   H= 4.34                 G= .150                 B-V= n.a.                   
                           ALBEDO= n.a.            STYP= n.a.                  
*******************************************************************************
 Date__(UT)__HR:MN     R.A._________(ICRF)_________DEC
******************************************************
$$SOE
 2018-Sep-06 06:50     04 32 01.897671 -32 52 46.95433
 2018-Sep-06 06:51     04 32 01.897887 -32 52 46.98985
 2018-Sep-06 06:52     04 32 01.898102 -32 52 47.02537
 2018-Sep-06 06:53     04 32 01.898317 -32 52 47.06089
 2018-Sep-06 06:54     04 32 01.898532 -32 52 47.09641
 2018-Sep-06 06:55     04 32 01.898747 -32 52 47.13193
 2018-Sep-06 06:56     04 32 01.898961 -32 52 47.16745
 2018-Sep-06 06:57     04 32 01.899175 -32 52 47.20296
 2018-Sep-06 06:58     04 32 01.899389 -32 52 47.23848
 2018-Sep-06 06:59     04 32 01.899603 -32 52 47.27399
 2018-Sep-06 07:00     04 32 01.899817 -32 52 47.30951
 2018-Sep-06 07:01     04 32 01.900030 -32 52 47.34502
 2018-Sep-06 07:02     04 32 01.900243 -32 52 47.38053
 2018-Sep-06 07:03     04 32 01.900456 -32 52 47.41604
 2018-Sep-06 07:04     04 32 01.900669 -32 52 47.45155
 2018-Sep-06 07:05     04 32 01.900882 -32 52 47.48706
 2018-Sep-06 07:06     04 32 01.901094 -32 52 47.52257
 2018-Sep-06 07:07     04 32 01.901306 -32 52 47.55808
 2018-Sep-06 07:08     04 32 01.901518 -32 52 47.59358
 2018-Sep-06 07:09     04 32 01.901730 -32 52 47.62909
 2018-Sep-06 07:10     04 32 01.901941 -32 52 47.66459
 2018-Sep-06 07:11     04 32 01.902153 -32 52 47.70010
 2018-Sep-06 07:12     04 32 01.902364 -32 52 47.73560
 2018-Sep-06 07:13     04 32 01.902575 -32 52 47.77110
 2018-Sep-06 07:14     04 32 01.902785 -32 52 47.80660
 2018-Sep-06 07:15     04 32 01.902996 -32 52 47.84210
 2018-Sep-06 07:16     04 32 01.903206 -32 52 47.87759
 2018-Sep-06 07:17     04 32 01.903416 -32 52 47.91309
 2018-Sep-06 07:18     04 32 01.903626 -32 52 47.94859
 2018-Sep-06 07:19     04 32 01.903836 -32 52 47.98408
 2018-Sep-06 07:20     04 32 01.904046 -32 52 48.01957
 2018-Sep-06 07:21     04 32 01.904255 -32 52 48.05507
 2018-Sep-06 07:22     04 32 01.904464 -32 52 48.09056
 2018-Sep-06 07:23     04 32 01.904673 -32 52 48.12605
 2018-Sep-06 07:24     04 32 01.904882 -32 52 48.16154
 2018-Sep-06 07:25     04 32 01.905090 -32 52 48.19703
 2018-Sep-06 07:26     04 32 01.905299 -32 52 48.23251
 2018-Sep-06 07:27     04 32 01.905507 -32 52 48.26800
 2018-Sep-06 07:28     04 32 01.905715 -32 52 48.30349
 2018-Sep-06 07:29     04 32 01.905923 -32 52 48.33897
 2018-Sep-06 07:30     04 32 01.906130 -32 52 48.37445
 2018-Sep-06 07:31     04 32 01.906338 -32 52 48.40993
 2018-Sep-06 07:32     04 32 01.906545 -32 52 48.44541
 2018-Sep-06 07:33     04 32 01.906752 -32 52 48.48089
 2018-Sep-06 07:34     04 32 01.906959 -32 52 48.51637
 2018-Sep-06 07:35     04 32 01.907166 -32 52 48.55185
 2018-Sep-06 07:36     04 32 01.907372 -32 52 48.58733
 2018-Sep-06 07:37     04 32 01.907578 -32 52 48.62280
 2018-Sep-06 07:38     04 32 01.907784 -32 52 48.65827
 2018-Sep-06 07:39     04 32 01.907990 -32 52 48.69375
 2018-Sep-06 07:40     04 32 01.908196 -32 52 48.72922
 2018-Sep-06 07:41     04 32 01.908402 -32 52 48.76469
 2018-Sep-06 07:42     04 32 01.908607 -32 52 48.80016
 2018-Sep-06 07:43     04 32 01.908812 -32 52 48.83563
 2018-Sep-06 07:44     04 32 01.909017 -32 52 48.87109
 2018-Sep-06 07:45     04 32 01.909222 -32 52 48.90656
 2018-Sep-06 07:46     04 32 01.909427 -32 52 48.94202
 2018-Sep-06 07:47     04 32 01.909631 -32 52 48.97749
 2018-Sep-06 07:48     04 32 01.909836 -32 52 49.01295
 2018-Sep-06 07:49     04 32 01.910040 -32 52 49.04841
 2018-Sep-06 07:50     04 32 01.910244 -32 52 49.08387
 2018-Sep-06 07:51     04 32 01.910448 -32 52 49.11933
 2018-Sep-06 07:52     04 32 01.910651 -32 52 49.15479
 2018-Sep-06 07:53     04 32 01.910855 -32 52 49.19024
 2018-Sep-06 07:54     04 32 01.911058 -32 52 49.22570
 2018-Sep-06 07:55     04 32 01.911261 -32 52 49.26115
 2018-Sep-06 07:56     04 32 01.911464 -32 52 49.29660
 2018-Sep-06 07:57     04 32 01.911667 -32 52 49.33206
 2018-Sep-06 07:58     04 32 01.911869 -32 52 49.36751
 2018-Sep-06 07:59     04 32 01.912072 -32 52 49.40296
 2018-Sep-06 08:00     04 32 01.912274 -32 52 49.43840
 2018-Sep-06 08:01     04 32 01.912476 -32 52 49.47385
 2018-Sep-06 08:02     04 32 01.912678 -32 52 49.50930
 2018-Sep-06 08:03     04 32 01.912880 -32 52 49.54474
 2018-Sep-06 08:04     04 32 01.913082 -32 52 49.58018
 2018-Sep-06 08:05     04 32 01.913283 -32 52 49.61563
 2018-Sep-06 08:06     04 32 01.913484 -32 52 49.65107
 2018-Sep-06 08:07     04 32 01.913686 -32 52 49.68650
 2018-Sep-06 08:08     04 32 01.913886 -32 52 49.72194
 2018-Sep-06 08:09     04 32 01.914087 -32 52 49.75738
 2018-Sep-06 08:10     04 32 01.914288 -32 52 49.79282
 2018-Sep-06 08:11     04 32 01.914488 -32 52 49.82825
 2018-Sep-06 08:12     04 32 01.914689 -32 52 49.86368
 2018-Sep-06 08:13     04 32 01.914889 -32 52 49.89911
 2018-Sep-06 08:14     04 32 01.915089 -32 52 49.93454
 2018-Sep-06 08:15     04 32 01.915289 -32 52 49.96997
 2018-Sep-06 08:16     04 32 01.915489 -32 52 50.00540
 2018-Sep-06 08:17  m  04 32 01.915688 -32 52 50.04083
 2018-Sep-06 08:18  m  04 32 01.915888 -32 52 50.07625
 2018-Sep-06 08:19  m  04 32 01.916087 -32 52 50.11168
 2018-Sep-06 08:20  m  04 32 01.916286 -32 52 50.14710
 2018-Sep-06 08:21  m  04 32 01.916485 -32 52 50.18252
 2018-Sep-06 08:22  m  04 32 01.916684 -32 52 50.21794
 2018-Sep-06 08:23  m  04 32 01.916882 -32 52 50.25336
 2018-Sep-06 08:24  m  04 32 01.917081 -32 52 50.28878
 2018-Sep-06 08:25  m  04 32 01.917279 -32 52 50.32419
 2018-Sep-06 08:26  m  04 32 01.917478 -32 52 50.35961
 2018-Sep-06 08:27  m  04 32 01.917676 -32 52 50.39502
 2018-Sep-06 08:28  m  04 32 01.917874 -32 52 50.43044
 2018-Sep-06 08:29  m  04 32 01.918071 -32 52 50.46585
 2018-Sep-06 08:30  m  04 32 01.918269 -32 52 50.50126
 2018-Sep-06 08:31  m  04 32 01.918467 -32 52 50.53667
 2018-Sep-06 08:32  m  04 32 01.918664 -32 52 50.57207
 2018-Sep-06 08:33  m  04 32 01.918861 -32 52 50.60748
 2018-Sep-06 08:34  m  04 32 01.919058 -32 52 50.64288
 2018-Sep-06 08:35  m  04 32 01.919255 -32 52 50.67829
 2018-Sep-06 08:36  m  04 32 01.919452 -32 52 50.71369
 2018-Sep-06 08:37  m  04 32 01.919649 -32 52 50.74909
 2018-Sep-06 08:38  m  04 32 01.919845 -32 52 50.78449
 2018-Sep-06 08:39  m  04 32 01.920042 -32 52 50.81988
 2018-Sep-06 08:40  m  04 32 01.920238 -32 52 50.85528
 2018-Sep-06 08:41  m  04 32 01.920434 -32 52 50.89068
 2018-Sep-06 08:42  m  04 32 01.920630 -32 52 50.92607
 2018-Sep-06 08:43  m  04 32 01.920826 -32 52 50.96146
 2018-Sep-06 08:44  m  04 32 01.921022 -32 52 50.99685
 2018-Sep-06 08:45  m  04 32 01.921218 -32 52 51.03224
 2018-Sep-06 08:46  m  04 32 01.921413 -32 52 51.06763
 2018-Sep-06 08:47  m  04 32 01.921609 -32 52 51.10302
 2018-Sep-06 08:48  m  04 32 01.921804 -32 52 51.13840
 2018-Sep-06 08:49  m  04 32 01.921999 -32 52 51.17379
 2018-Sep-06 08:50  m  04 32 01.922194 -32 52 51.20917
 2018-Sep-06 08:51  m  04 32 01.922389 -32 52 51.24455
 2018-Sep-06 08:52  m  04 32 01.922584 -32 52 51.27993
